SatCatId,ObjectName,LaunchYear,OrbitalPeriod,LaunchMass,StatusCode,Inclination,Status,UcsData,OrbitClassEstimated,LaunchSiteCountry,Owner,UseType,Purpose,LaunchVehicleClass,TLE1,TLE2,MeanMotion,Eccentricity,OrbitClass
56451,STARLINK-5985,2023,96.11,-1.0,+,70.0,Active,0,LEO,USA,USA,Unknown,Unknown,Unknown,1 56451U 23064D   24131.43450071  .00001837  00000+0  16174-3 0  9991,2 56451  70.0015  29.5381 0002812 269.9591  90.1246 14.98330467 55140,14.98330467,0.0002812,LEO
56452,STARLINK-5986,2023,96.11,-1.0,+,70.0,Active,0,LEO,USA,USA,Unknown,Unknown,Unknown,1 56452U 23064E   24131.43032636  .00000855  00000+0  79417-4 0  9994,2 56452  70.0013  29.5214 0002832 281.0586  79.0255 14.98328869 55144,14.98328869,0.0002832,LEO
56453,STARLINK-5935,2023,96.11,-1.0,+,70.0,Active,0,LEO,USA,USA,Unknown,Unknown,Unknown,1 56453U 23064F   24131.42615211 -.00001286  00000+0 -10001-3 0  9994,2 56453  70.0021  29.5091 0002465 257.5044 102.5839 14.98333148 55142,14.98333148,0.0002465,LEO
56454,STARLINK-5959,2023,96.11,-1.0,+,70.0,Active,0,LEO,USA,USA,Unknown,Unknown,Unknown,1 56454U 23064G   24131.13823736  .00002529  00000+0  21965-3 0  9996,2 56454  70.0009  30.1090 0002921 274.5165  85.5660 14.98329383 55100,14.98329383,0.0002921,LEO
56455,STARLINK-5987,2023,96.11,-1.0,+,70.0,Active,0,LEO,USA,USA,Unknown,Unknown,Unknown,1 56455U 23064H   24131.13406092  .00002149  00000+0  18781-3 0  9999,2 56455  70.0000  30.0948 0002920 270.1523  89.9301 14.98334342 55103,14.98334342,0.000292,LEO
56456,STARLINK-5995,2023,96.11,-1.0,+,70.0,Active,0,LEO,USA,USA,Unknown,Unknown,Unknown,1 56456U 23064J   24131.41363042  .00002945  00000+0  25446-3 0  9998,2 56456  70.0025  29.4645 0002896 266.5704  93.5124 14.98334800 55146,14.983348,0.0002896,LEO
56457,STARLINK-5994,2023,96.11,-1.0,+,70.0,Active,0,LEO,USA,USA,Unknown,Unknown,Unknown,1 56457U 23064K   24131.58334491  .00088303  00000+0  73247-2 0  9996,2 56457  70.0017  28.9876 0003118 270.9772 328.4410 14.98281258  5725,14.98281258,0.0003118,LEO
56458,STARLINK-6050,2023,96.11,-1.0,+,70.0,Active,0,LEO,USA,USA,Unknown,Unknown,Unknown,1 56458U 23064L   24131.41780487 -.00000348  00000+0 -21393-4 0  9991,2 56458  70.0011  29.4784 0002771 265.1046  94.9796 14.98318027 55146,14.98318027,0.0002771,LEO
56459,STARLINK-6048,2023,96.11,-1.0,+,70.0,Active,0,LEO,USA,USA,Unknown,Unknown,Unknown,1 56459U 23064M   24131.45133599  .00000864  00000+0  80203-4 0  9998,2 56459  70.0006  29.1950 0002825 269.8236  90.2599 14.98332168 55158,14.98332168,0.0002825,LEO
56460,STARLINK-6047,2023,96.11,-1.0,+,70.0,Active,0,LEO,USA,USA,Unknown,Unknown,Unknown,1 56460U 23064N   24131.46370161  .00005208  00000+0  44383-3 0  9994,2 56460  70.0019  29.2378 0002687 267.2097  92.8755 14.98337102 55157,14.98337102,0.0002687,LEO
56461,STARLINK-6037,2023,96.11,-1.0,+,70.0,Active,0,LEO,USA,USA,Unknown,Unknown,Unknown,1 56461U 23064P   24131.44699705  .00002522  00000+0  21909-3 0  9996,2 56461  70.0013  29.1769 0003205 258.7006 101.3793 14.98330413 55153,14.98330413,0.0003205,LEO
56462,STARLINK-6045,2023,96.11,-1.0,+,70.0,Active,0,LEO,USA,USA,Unknown,Unknown,Unknown,1 56462U 23064Q   24131.33803953 -.00004730  00000+0 -38864-3 0  9990,2 56462  69.9998 349.4304 0003182 257.7295 102.3508 14.98351563 56121,14.98351563,0.0003182,LEO
56463,STARLINK-6051,2023,96.11,-1.0,+,70.0,Active,0,LEO,USA,USA,Unknown,Unknown,Unknown,1 56463U 23064R   24131.42197626  .00001829  00000+0  16099-3 0  9994,2 56463  70.0002  29.4856 0003182 269.8892  90.1902 14.98334959 55148,14.98334959,0.0003182,LEO
56464,STARLINK-6043,2023,96.11,-1.0,+,70.0,Active,0,LEO,USA,USA,Unknown,Unknown,Unknown,1 56464U 23064S   24131.45952202  .00000022  00000+0  96736-5 0  9999,2 56464  70.0006  29.2242 0002943 270.8707  89.2115 14.98328448 55153,14.98328448,0.0002943,LEO
56465,STARLINK-6054,2023,96.11,-1.0,+,70.0,Active,0,LEO,USA,USA,Unknown,Unknown,Unknown,1 56465U 23064T   24131.34221631 -.00001118  00000+0 -85901-4 0  9993,2 56465  70.0000 349.4401 0003177 259.6777 100.4024 14.98338654 56127,14.98338654,0.0003177,LEO
56466,STARLINK-6053,2023,96.11,-1.0,+,70.0,Active,0,LEO,USA,USA,Unknown,Unknown,Unknown,1 56466U 23064U   24131.45116965  .00000119  00000+0  17734-4 0  9996,2 56466  70.0001  29.1915 0002952 267.3189  92.7632 14.98330329 55155,14.98330329,0.0002952,LEO
56467,STARLINK-6055,2023,96.11,-1.0,+,70.0,Active,0,LEO,USA,USA,Unknown,Unknown,Unknown,1 56467U 23064V   24131.40505743 -.00000836  00000+0 -62276-4 0  9997,2 56467  70.0012   9.5640 0002781 265.9173  94.1668 14.98333323 55637,14.98333323,0.0002781,LEO
56468,STARLINK-5998,2023,96.11,-1.0,+,70.0,Active,0,LEO,USA,USA,Unknown,Unknown,Unknown,1 56468U 23064W   24131.44282103  .00000391  00000+0  40551-4 0  9990,2 56468  70.0004  29.1620 0003169 272.1458  87.9338 14.98329979 55155,14.98329979,0.0003169,LEO
56469,STARLINK-5518,2023,96.11,-1.0,+,70.0,Active,0,LEO,USA,USA,Unknown,Unknown,Unknown,1 56469U 23064X   24131.08377873  .00003331  00000+0  28684-3 0  9999,2 56469  70.0004  10.4513 0002989 265.6314  94.4503 14.98326136 55583,14.98326136,0.0002989,LEO
56470,STARLINK-5523,2023,96.11,-1.0,+,70.0,Active,0,LEO,USA,USA,Unknown,Unknown,Unknown,1 56470U 23064Y   24131.40923635  .00002115  00000+0  18494-3 0  9997,2 56470  70.0003   9.5802 0003072 272.3522  87.7286 14.98337550 55635,14.9833755,0.0003072,LEO
56471,STARLINK-5521,2023,96.11,-1.0,+,70.0,Active,0,LEO,USA,USA,Unknown,Unknown,Unknown,1 56471U 23064Z   24131.40088505 -.00000288  00000+0 -16348-4 0  9994,2 56471  70.0001   9.5500 0003059 271.7013  88.3795 14.98328835 55630,14.98328835,0.0003059,LEO
56472,STARLINK-5038,2023,96.11,-1.0,+,70.0,Active,0,LEO,USA,USA,Unknown,Unknown,Unknown,1 56472U 23064AA  24131.60132930  .00002305  00000+0  20087-3 0  9993,2 56472  70.0021   9.0459 0002978 270.0011  90.0807 14.98336005 55665,14.98336005,0.0002978,LEO
56473,STARLINK-5486,2023,96.11,-1.0,+,70.0,Active,0,LEO,USA,USA,Unknown,Unknown,Unknown,1 56473U 23064AB  24131.12131967  .00000690  00000+0  65600-4 0  9996,2 56473  70.0003  10.1797 0003190 274.5794  85.5001 14.98328473 55595,14.98328473,0.000319,LEO
56474,STARLINK-5524,2023,96.11,-1.0,+,70.0,Active,0,LEO,USA,USA,Unknown,Unknown,Unknown,1 56474U 23064AC  24131.07960322  .00008250  00000+0  69805-3 0  9996,2 56474  70.0020  10.4376 0003011 271.6360  88.4454 14.98349907 55588,14.98349907,0.0003011,LEO
56475,STARLINK-5541,2023,96.11,-1.0,+,70.0,Active,0,LEO,USA,USA,Unknown,Unknown,Unknown,1 56475U 23064AD  24131.37600253 -.00004152  00000+0 -34028-3 0  9992,2 56475  70.0028   9.4639 0002518 256.6056 103.4823 14.98345841 55630,14.98345841,0.0002518,LEO
56476,STARLINK-5545,2023,96.11,-1.0,+,70.0,Active,0,LEO,USA,USA,Unknown,Unknown,Unknown,1 56476U 23064AE  24131.39671101  .00000482  00000+0  48166-4 0  9994,2 56476  70.0005   9.5366 0003024 270.4837  89.5976 14.98329563 55634,14.98329563,0.0003024,LEO
56477,STARLINK-5534,2023,96.11,-1.0,+,70.0,Active,0,LEO,USA,USA,Unknown,Unknown,Unknown,1 56477U 23064AF  24131.37182995  .00000449  00000+0  45430-4 0  9995,2 56477  70.0006   9.4494 0002804 269.9968  90.0870 14.98328573 55630,14.98328573,0.0002804,LEO
56478,STARLINK-6041,2023,96.11,-1.0,+,70.0,Active,0,LEO,USA,USA,Unknown,Unknown,Unknown,1 56478U 23064AG  24131.05038709  .00004200  00000+0  35975-3 0  9995,2 56478  70.0006  10.3337 0003213 270.2832  89.7958 14.98315244 55585,14.98315244,0.0003213,LEO
56479,STARLINK-6044,2023,96.11,-1.0,+,70.0,Active,0,LEO,USA,USA,Unknown,Unknown,Unknown,1 56479U 23064AH  24131.35914308  .00000619  00000+0  59687-4 0  9994,2 56479  70.0015   9.4038 0002492 272.3551  87.7323 14.98326767 55634,14.98326767,0.0002492,LEO
56480,STARLINK-6214,2023,96.1,-1.0,+,70.0,Active,0,LEO,USA,USA,Unknown,Unknown,Unknown,1 56480U 23064AJ  24131.05873531  .00019366  00000+0  16244-2 0  9994,2 56480  70.0016  10.3620 0002923 273.8920  86.1905 14.98376027 55587,14.98376027,0.0002923,LEO
56481,STARLINK-6222,2023,96.11,-1.0,+,70.0,Active,0,LEO,USA,USA,Unknown,Unknown,Unknown,1 56481U 23064AK  24131.36749103  .00000337  00000+0  36051-4 0  9994,2 56481  70.0013   9.4322 0002673 277.8827  82.2028 14.98328308 55633,14.98328308,0.0002673,LEO
56482,STARLINK-6220,2023,96.11,-1.0,+,70.0,Active,0,LEO,USA,USA,Unknown,Unknown,Unknown,1 56482U 23064AL  24131.38001322  .00000503  00000+0  49981-4 0  9992,2 56482  70.0010   9.4751 0002833 274.0102  86.0734 14.98328846 55633,14.98328846,0.0002833,LEO
56483,STARLINK-5868,2023,96.11,-1.0,+,70.0,Active,0,LEO,USA,USA,Unknown,Unknown,Unknown,1 56483U 23064AM  24131.37584031  .00002598  00000+0  22539-3 0  9990,2 56483  70.0024   9.4588 0002717 271.5754  88.5094 14.98333770 55631,14.9833377,0.0002717,LEO
56484,STARLINK-6221,2023,96.11,-1.0,+,70.0,Active,0,LEO,USA,USA,Unknown,Unknown,Unknown,1 56484U 23064AN  24131.10462565  .00001543  00000+0  13707-3 0  9995,2 56484  70.0012  10.1211 0002548 261.1233  98.9638 14.98324490 55593,14.9832449,0.0002548,LEO
56485,STARLINK-6210,2023,96.11,-1.0,+,70.0,Active,0,LEO,USA,USA,Unknown,Unknown,Unknown,1 56485U 23064AP  24131.08792186  .00001606  00000+0  14238-3 0  9998,2 56485  70.0003  10.0612 0002996 270.8650  89.2166 14.98333760 55594,14.9833376,0.0002996,LEO
56486,STARLINK-6201,2023,96.11,-1.0,+,70.0,Active,0,LEO,USA,USA,Unknown,Unknown,Unknown,1 56486U 23064AQ  24131.63035711 -.00000186  00000+0 -77551-5 0  9997,2 56486  70.0020   8.7469 0003046 266.9660  93.1150 14.98330444 55674,14.98330444,0.0003046,LEO
56487,STARLINK-6196,2023,96.11,-1.0,+,70.0,Active,0,LEO,USA,USA,Unknown,Unknown,Unknown,1 56487U 23064AR  24131.57606086 -.00000223  00000+0 -10867-4 0  9998,2 56487  70.0005 349.0853 0002667 272.8445  87.2409 14.98332480 56158,14.9833248,0.0002667,LEO
56488,STARLINK-6204,2023,96.11,-1.0,+,70.0,Active,0,LEO,USA,USA,Unknown,Unknown,Unknown,1 56488U 23064AS  24131.59275645  .00004090  00000+0  35032-3 0  9998,2 56488  70.0028 349.1448 0002679 279.5943  80.4913 14.98331224 56155,14.98331224,0.0002679,LEO
